FGN-100-D2              
1 66299U 25248G   26068.00382769  .00006346  00000+0  30466-3 0  9990
2 66299  45.4006 298.0063 0005270 203.9196 156.1446 15.19697424 19279
FLOCK 4H-17             
1 66720U 25276BG  26068.50940711  .00016485  00000+0  77232-3 0  9999
2 66720  97.4298 143.9091 0002134 323.7123  36.3967 15.19779499 15292
